[{"OBJECT_NAME":"GENMAT-1","OBJECT_ID":"2023-174W","EPOCH":"2026-03-09T18:03:23.351040","MEAN_MOTION":15.32594666,"ECCENTRICITY":0.00074416,"INCLINATION":97.3728,"RA_OF_ASC_NODE":146.8236,"ARG_OF_PERICENTER":169.2515,"MEAN_ANOMALY":190.8888,"EPHEMERIS_TYPE":0,"CLASSIFICATION_TYPE":"U","NORAD_CAT_ID":58276,"ELEMENT_SET_NO":999,"REV_AT_EPOCH":12973,"BSTAR":0.00042157222,"MEAN_MOTION_DOT":0.0001321,"MEAN_MOTION_DDOT":0},{"OBJECT_NAME":"STARLINK-32028","OBJECT_ID":"2024-117E","EPOCH":"2026-03-09T22:25:40.172736","MEAN_MOTION":15.30192027,"ECCENTRICITY":0.00011231,"INCLINATION":53.1623,"RA_OF_ASC_NODE":36.0112,"ARG_OF_PERICENTER":94.0007,"MEAN_ANOMALY":266.1122,"EPHEMERIS_TYPE":0,"CLASSIFICATION_TYPE":"U","NORAD_CAT_ID":60095,"ELEMENT_SET_NO":999,"REV_AT_EPOCH":9692,"BSTAR":4.356212e-5,"MEAN_MOTION_DOT":9.31e-6,"MEAN_MOTION_DDOT":0}]
